FENGYUN 1C DEB          
1 36696U 99025DZS 17345.02735507  .00001114  00000-0  58691-3 0  9993
2 36696  98.8520 278.9953 0031071  75.0254 285.4356 14.15757215228577
